#dP2021  5  1 12  0  0.00000000      96 __u+U ITR00 EXT  IAC
## 2155 561600.00000000   900.00000000 59335 0.5000000000000
+  116   C06C07C08C09C10C11C12C13C14C16C19C20C21C22C23C24C25
+        C26C27C28C29C30C32C33C34C35C36C37C38C39C40C41C42C43
+        C44C45C46E01E02E03E04E05E07E08E09E11E12E13E14E15E18
+        E19E21E24E25E26E27E30E31E33E36G01G02G03G04G05G06G07
+        G08G09G10G12G13G14G15G16G17G18G19G20G21G22G23G24G25
+        G26G27G28G29G30G31G32J01J02J03R01R02R03R04R05R07R08
+        R09R11R12R13R14R15R16R17R18R19R20R21R22R24  0  0  0
++         9  8  8 11  9  9  9  8  9  8  8  9  8  8 10 10  8
++         7 10  8  9  8  9 10  8  9  7 10 10 11  9  6  7  7
++         9  8  9  8  8  8  8  8  9  8  8  7  8  7  7  8  9
++         9  9  9  7  7  8  7  9  8  8  7  8  7  7  8  9  7
++         8  6  8  8  8  6  8  7  7  8  8  8  9  7  7  8  8
++         7  8  7  8  6  9  8 11 10  9  8  9  8  9  8  7  9
++         9  8  8  9  8  7  9  8  9  8  9  9  9 10  0  0  0
%c M  cc GPS ccc cccc cccc cccc cccc ccccc ccccc ccccc ccccc
%c cc cc ccc ccc cccc cccc cccc cccc ccccc ccccc ccccc ccccc
%f  0.0000000  0.000000000  0.00000000000  0.000000000000000
%f  0.0000000  0.000000000  0.00000000000  0.000000000000000
%i    0    0    0    0      0      0      0      0         0
%i    0    0    0    0      0      0      0      0         0
/* IAC                                ULTRA-RAPID PREDICTION
/* S/V CLOCKS ARE ALIGNED TO GNSS TIME                      
/* G:C1WC2W R:C1PC2P E:C1XC5X C:C2IC6I J:C1CC2S             
/* PCV:IGS14_2148 OL/AL:FES2004  NONE     YN ORB:CoN CLK:CoN
*  2021 05 01 14 30  0.00000000
PC06 -16180.373792  38009.910949  10118.707350    336.775020
PC07 -11876.112420  23942.651301 -32312.097398   -177.157553
PC08 -24789.707065  23554.504531  24525.281254   -890.481710
PC09  -7442.185372  41372.960534  -5244.742330    555.677815
PC10   3974.177809  31120.276774 -27775.605106    -48.724158
PC11 -14449.932173  21961.215746  -9253.486243    315.804708
PC12 -16860.697677   5171.545474 -21593.148825    902.800733
PC13 -10758.245217  25494.267378  31837.119453    243.585957
PC14 -10443.883494  12193.833683  22852.946224    613.654387
PC16 -13338.913283  39582.359944   6666.028709   -813.195003
PC19   1549.246974 -19225.434916 -20142.285872    818.809614
PC20  16257.286651  -4777.646692 -22144.013692   -936.769798
PC21 -21959.603943 -13311.480787  10979.555207   -944.967909
PC22 -14470.382316 -23007.769704  -6388.428081   -960.814179
PC23   9058.558210  14364.958083 -22140.601626   -897.711227
PC24 -26221.841857   8378.521895  -4513.225257   -833.818964
PC25 -11164.095895  16640.560290 -19418.769254   -923.860542
PC26 -25162.076413  -2967.560184  11651.245784    913.224089
PC27  14766.412503   5749.436419  22949.161701    524.502913
PC28   3626.549535  22625.939198  15925.078796    -79.658646
PC29   8606.215488 -26538.960551    421.152405    386.339956
PC30  16783.445928 -14581.155304  16842.353008    464.504590
PC32  22033.457027  13157.948515 -10923.621738   -939.564988
PC33  -1593.712016  19189.546924  20203.495687   -941.482440
PC34 -16737.177507  15252.442229 -16338.895013   -683.373078
PC35  -4240.909502 -22683.264013 -15672.901120   -301.247322
PC36  11934.433414 -16329.065747  19249.567849   -728.357575
PC37  24679.576309   4120.518437 -12358.820632   -902.929089
PC38 -19976.202786  26095.631319  26384.212783    145.868783
PC39  -8772.282483  41130.804417   3969.448315     30.755231
PC40    382.746149  27747.179165 -31675.431992    156.630478
PC41  14262.253780  23035.196024   6746.793862   -945.740538
PC42 -16795.043648   4111.670106  21956.688931   -918.615078
PC43  -9074.027922  26389.314431   -934.357881   -710.512807
PC44 -15034.881808  -5458.609609 -22876.962803    165.774723
PC45  -9160.807471 -14200.485962  22207.148801    428.531737
PC46  25879.812011  -8973.492987   5433.870469    290.946332
PE01 -15648.514093  11241.128888 -22471.106286  -1098.604848
PE02  15551.411339 -11296.682714  22510.485485    216.050542
PE03   8866.855792 -20651.214221 -19265.294437   -426.178993
PE04   4699.665989  29005.518766   3579.222251   -761.726877
PE05  17455.380730    -18.994075 -23897.105543   -284.432306
PE07 -15781.085418 -20389.112347  14561.358816   -532.409762
PE08  -5105.456032 -28979.875657  -3263.442238   6009.029848
PE09  15840.408410  20186.475114 -14733.606140   5682.448316
PE11  13651.667583   9131.854434  24614.848468   6032.347113
PE12  -4768.752087  22172.668478  19033.279752   5232.306184
PE13 -13314.663313  -9383.446932 -24712.973746    415.793303
PE14 -12657.836525 -24554.646347 -15666.971138  -1415.993991
PE15   4681.986404 -22117.982925 -19095.941528    816.588108
PE18   4838.900638  23195.421578   6618.310413  -1549.541772
PE19 -10149.057990  18701.363097  20589.048229    266.028665
PE21 -27991.464378  -1274.858687  -9540.128413   -662.445495
PE24  24029.868877  14066.200234 -10092.605395   -876.713676
PE25  28048.978583   1417.225781   9360.091378   -532.531514
PE26 -23689.123131   9352.096035 -15086.075850   1860.959236
PE27 -24567.070788 -13566.706281   9398.363347    -23.029293
PE30  -5600.103221 -17799.079646  22963.649491   2980.563488
PE31   6737.072469  17794.811896 -22671.302093   -480.715916
PE33 -19891.539249  21815.070641   2254.674552   -468.125853
PE36  23430.163058  -8836.915501  15774.344768   -201.179205
PG01   7887.689111 -18610.436765 -17297.046719    701.374902
PG02 -22170.363706  14216.171528  -2962.046582   -600.524222
PG03  -2427.354667 -16973.207894 -20394.854583   -152.065105
PG04   1458.783901 -26345.895180  -2751.384134   -194.437210
PG05 -14384.755920   9105.799559  20282.540862    -40.673967
PG06 -22362.633965   3435.739541 -13903.565091     11.743901
PG07  -6874.056163 -14024.663101  21805.626967    138.423593
PG08   6473.931408 -22808.517630  11641.546419    -19.554569
PG09  -7102.173010 -24399.743568   7627.293138   -342.708560
PG10  23986.048327  11724.817668   -570.952709   -113.193005
PG12  -1306.710979  16148.261889 -21329.682732    -35.211307
PG13 -12883.793424  15791.417584  16827.991455    126.644169
PG14 -23199.861416 -12959.786264   -272.433444     91.064320
PG15  -4137.560942  23606.745010  10694.995090   -152.394143
PG16  18130.155218  -3807.513935  18960.238557   -318.320264
PG17 -12765.633960 -12396.706121 -19291.094051    435.374011
PG18  10017.094596  11426.925696  21778.356649    351.208490
PG19 -14726.632166  -2945.634908 -22198.434245     -5.692703
PG20   2262.630346  16689.044975  20546.392252    522.621157
PG21  14475.267657 -19431.401877  -9584.287630    115.033165
PG22   7675.001160 -13784.675990 -21159.956583   -624.912670
PG23  18394.563947  16423.634506   9908.624281    110.018719
PG24 -11442.690380  20275.387934 -12659.039261     49.273286
PG25  12393.837587  18246.818466 -15253.224335    129.044927
PG26  23746.638091   1218.207813  12051.047760     79.577658
PG27  12353.581538 -13079.760305  19232.694570   -122.511115
PG28 -23373.648759 -11467.345347  -4183.062719    578.215958
PG29   4827.933820  24802.786854   8059.468929   -339.585301
PG30 -18639.430042  -4538.636712  18520.421319   -420.312773
PG31  23751.815052  -5201.979550 -11306.553691   -114.788214
PG32  14627.162760   9574.853984 -19933.376374     21.813032
PJ01 -25880.596615  22188.776802  29830.098615   -372.707763
PJ02 -29911.185980  16136.121713 -20451.094921      6.903291
PJ03 -23717.886480  31813.699795  -9694.193874     -4.492717
PR01  -7632.678718   8542.716099  22797.292842     78.755162
PR02   6693.734837  21923.179524  11299.422682    476.940930
PR03  15066.086667  19710.730371  -5992.836291     35.164157
PR04  14670.538180   6524.496007 -19789.563046     84.842899
PR05   6191.264133 -10270.997068 -22493.427064     70.941836
PR07 -15227.549672 -19292.130369   6790.255036    -42.522742
PR08 -14758.459348  -6322.640376  19875.323251    -58.807246
PR09   -382.610965 -11262.140084  22898.752477     -9.313509
PR11 -25500.495489    447.261260    726.514091     -1.598206
PR12 -18021.928791   8022.486883 -16135.869417    225.347349
PR13   -405.283888  11005.863094 -23025.885160    -54.174976
PR14  18169.825707   7478.670035 -16248.966181     63.766038
PR15  25505.575965   -311.898828   -208.206857    104.056326
PR16  17124.882693  -8859.083629  16748.475336    -14.520217
PR17   5178.779158  11367.269745  22239.258889    420.374245
PR18  13675.545424  -4977.668114  20943.058293     75.008891
PR19  15631.594732 -17921.581899   9220.793677   -141.970295
PR20   7700.934434 -21812.244881 -10693.300014    -48.326534
PR21  -5815.779828 -10329.430475 -22592.327155   -205.746469
PR22 -14070.185721   6105.523119 -20431.668976   -110.561727
PR24  -6732.212681  21882.151229  11254.140943     40.962199
EOF
